SWARM A                 
1 39452U 13067B   26178.47809897  .00009906  00000+0  16914-3 0  9993
2 39452  87.3322  52.4178 0003146  97.2046 262.9573 15.51143671707843
SWARM C                 
1 39453U 13067C   26178.47799534  .00009820  00000+0  16767-3 0  9991
2 39453  87.3321  50.9990 0003141  97.5820 262.5798 15.51142539707809
BRITE-CA1 (TORONTO)     
1 40020U 14033L   26178.36533176  .00000868  00000+0  13812-3 0  9994
2 40020  97.9749 307.1062 0077363 243.8589 115.4646 14.72691852643710
OCO 2                   
1 40059U 14035A   26178.45589111  .00000390  00000+0  96685-4 0  9998
2 40059  98.2019 119.5925 0001510  83.4353 276.7018 14.57119167637542
BRITE-PL2 (HEWELIUSZ)   
1 40119U 14049B   26178.54934473  .00001631  00000+0  15572-3 0  9999
2 40119  97.9108 290.6296 0015327  76.8594 283.4336 14.94631287642996
MMS 1                   
1 40482U 15011A   26178.58335647 -.00000889  00000+0  00000+0 0  9995
2 40482  72.2549 348.6907 8317349 167.6224 279.1381  0.28371467  1380
MMS 2                   
1 40483U 15011B   26178.58335647 -.00000890  00000+0  00000+0 0  9998
2 40483  72.2586 348.6897 8320159 167.6257 279.1285  0.28371437  1389
MMS 3                   
1 40484U 15011C   26178.58335647 -.00000889  00000+0  00000+0 0  9997
2 40484  72.2586 348.7015 8318528 167.6332 279.1024  0.28371436  1384
MMS 4                   
1 40485U 15011D   26178.58335647 -.00000889  00000+0  00000+0 0  9998
2 40485  72.2548 348.6848 8318431 167.6430 279.0955  0.28371433  1387
ASTROSAT                
1 40930U 15052A   26178.31699257  .00001555  00000+0  10752-3 0  9998
2 40930   5.9975  82.4253 0007905 183.2335 176.7742 14.82523206581330
DAMPE                   
1 41173U 15078A   26178.49647053  .00001457  00000+0  51455-4 0  9999
2 41173  97.4557 184.0144 0013385  45.1499 315.0827 15.30811506586127
PISAT                   
1 41784U 16059B   26178.49754209  .00000896  00000+0  15988-3 0  9995
2 41784  97.8180 178.5074 0029246 169.6128 190.5689 14.69000082521250
HXMT (HUIYAN)           
1 42758U 17034A   26178.32982421  .00004789  00000+0  23610-3 0  9998
2 42758  43.0134 126.5599 0032124 211.5871 148.3049 15.18543815499201
FLYING LAPTOP           
1 42831U 17042G   26178.51725409  .00002209  00000+0  17589-3 0  9994
2 42831  97.4725 333.6550 0019970  88.7419 271.6093 15.01208876488008
ZHANGHENG 1-01 (CSES-1) 
1 43194U 18015C   26178.53439441  .00007424  00000+0  33729-3 0  9996
2 43194  97.6871 344.3984 0017429 227.9002 132.0752 15.20941074466213
SALSAT                  
1 46495U 20068K   26178.47981012  .00007487  00000+0  26096-3 0  9991
2 46495  97.8847 182.1720 0007835 263.9678  96.0668 15.29940196316931
IXPE                    
1 49954U 21121A   26178.50002315  .00011605  00000+0  63113-3 0  9997
2 49954   0.2286 239.6763 0007071 231.5885 149.9907 15.10344809  5171
SMILE                   
1 69123U 26109A   26158.38327019 -.00000041  00000+0 -36778-3 0  9994
2 69123  69.9787 209.3069 3310191 288.5544  45.7342  7.54049028  2480
