OBJECT_NAME,OBJECT_ID,EPOCH,MEAN_MOTION,ECCENTRICITY,INCLINATION,RA_OF_ASC_NODE,ARG_OF_PERICENTER,MEAN_ANOMALY,EPHEMERIS_TYPE,CLASSIFICATION_TYPE,NORAD_CAT_ID,ELEMENT_SET_NO,REV_AT_EPOCH,BSTAR,MEAN_MOTION_DOT,MEAN_MOTION_DDOT
SWARM A,2013-067B,2026-06-27T11:28:27.751008,15.51143671,.0003146,87.3322,52.4178,97.2046,262.9573,0,U,39452,999,70784,.16914E-3,.9906E-4,0
SWARM C,2013-067C,2026-06-27T11:28:18.797376,15.51142539,.0003141,87.3321,50.9990,97.5820,262.5798,0,U,39453,999,70780,.16767E-3,.982E-4,0
BRITE-CA1 (TORONTO),2014-033L,2026-06-27T08:46:04.664064,14.72691852,.0077363,97.9749,307.1062,243.8589,115.4646,0,U,40020,999,64371,.13812E-3,.868E-5,0
OCO 2,2014-035A,2026-06-27T10:56:28.991904,14.57119167,.000151,98.2019,119.5925,83.4353,276.7018,0,U,40059,999,63754,.96685E-4,.39E-5,0
BRITE-PL2 (HEWELIUSZ),2014-049B,2026-06-27T13:11:03.384672,14.94631287,.0015327,97.9108,290.6296,76.8594,283.4336,0,U,40119,999,64299,.15572E-3,.1631E-4,0
MMS 1,2015-011A,2026-06-27T14:00:01.999008,0.28371467,.8317349,72.2549,348.6907,167.6224,279.1381,0,U,40482,999,138,0,-.889E-5,0
MMS 2,2015-011B,2026-06-27T14:00:01.999008,0.28371437,.8320159,72.2586,348.6897,167.6257,279.1285,0,U,40483,999,138,0,-.89E-5,0
MMS 3,2015-011C,2026-06-27T14:00:01.999008,0.28371436,.8318528,72.2586,348.7015,167.6332,279.1024,0,U,40484,999,138,0,-.889E-5,0
MMS 4,2015-011D,2026-06-27T14:00:01.999008,0.28371433,.8318431,72.2548,348.6848,167.6430,279.0955,0,U,40485,999,138,0,-.889E-5,0
ASTROSAT,2015-052A,2026-06-27T07:36:28.158048,14.82523206,.0007905,5.9975,82.4253,183.2335,176.7742,0,U,40930,999,58133,.10752E-3,.1555E-4,0
DAMPE,2015-078A,2026-06-27T11:54:55.053792,15.30811506,.0013385,97.4557,184.0144,45.1499,315.0827,0,U,41173,999,58612,.51455E-4,.1457E-4,0
PISAT,2016-059B,2026-06-27T11:56:27.636576,14.69000082,.0029246,97.8180,178.5074,169.6128,190.5689,0,U,41784,999,52125,.15988E-3,.896E-5,0
HXMT (HUIYAN),2017-034A,2026-06-27T07:54:56.811744,15.18543815,.0032124,43.0134,126.5599,211.5871,148.3049,0,U,42758,999,49920,.2361E-3,.4789E-4,0
FLYING LAPTOP,2017-042G,2026-06-27T12:24:50.753376,15.01208876,.001997,97.4725,333.6550,88.7419,271.6093,0,U,42831,999,48800,.17589E-3,.2209E-4,0
ZHANGHENG 1-01 (CSES-1),2018-015C,2026-06-27T12:49:31.677024,15.20941074,.0017429,97.6871,344.3984,227.9002,132.0752,0,U,43194,999,46621,.33729E-3,.7424E-4,0
SALSAT,2020-068K,2026-06-27T11:30:55.594368,15.29940196,.0007835,97.8847,182.1720,263.9678,96.0668,0,U,46495,999,31693,.26096E-3,.7487E-4,0
IXPE,2021-121A,2026-06-27T12:00:02.000160,15.10344809,.0007071,0.2286,239.6763,231.5885,149.9907,0,U,49954,999,517,.63113E-3,.11605E-3,0
SMILE,2026-109A,2026-06-07T09:11:54.544416,7.54049028,.3310191,69.9787,209.3069,288.5544,45.7342,0,U,69123,999,248,-.36778157E-3,-.41E-6,0
